{
    "links": {
        "self": "http://www.neowsapp.com/rest/v1/neo/3698550?api_key=iIulBulltgU6a56xZRHN4H3l9WmuAYTsLGpBGhQ2"
    },
    "id": "3698550",
    "neo_reference_id": "3698550",
    "name": "(2014 HY198)",
    "designation": "2014 HY198",
    "nasa_jpl_url": "http://ssd.jpl.nasa.gov/sbdb.cgi?sstr=3698550",
    "absolute_magnitude_h": 29.7,
    "estimated_diameter": {
        "kilometers": {
            "estimated_diameter_min": 0.0030517923,
            "estimated_diameter_max": 0.0068240151
        },
        "meters": {
            "estimated_diameter_min": 3.0517923259,
            "estimated_diameter_max": 6.824015094
        },
        "miles": {
            "estimated_diameter_min": 0.0018962952,
            "estimated_diameter_max": 0.0042402451
        },
        "feet": {
            "estimated_diameter_min": 10.0124423346,
            "estimated_diameter_max": 22.388501681
        }
    },
    "is_potentially_hazardous_asteroid": false,
    "close_approach_data": [
        {
            "close_approach_date": "1983-04-30",
            "close_approach_date_full": "1983-Apr-30 02:42",
            "epoch_date_close_approach": 420518520000,
            "relative_velocity": {
                "kilometers_per_second": "8.8904201204",
                "kilometers_per_hour": "32005.5124334662",
                "miles_per_hour": "19886.980767339"
            },
            "miss_distance": {
                "astronomical": "0.0923615478",
                "lunar": "35.9286420942",
                "kilometers": "13817090.820783186",
                "miles": "8585542.1191565268"
            },
            "orbiting_body": "Earth"
        },
        {
            "close_approach_date": "1984-10-26",
            "close_approach_date_full": "1984-Oct-26 15:16",
            "epoch_date_close_approach": 467651760000,
            "relative_velocity": {
                "kilometers_per_second": "15.9811187491",
                "kilometers_per_hour": "57532.0274966203",
                "miles_per_hour": "35748.164529775"
            },
            "miss_distance": {
                "astronomical": "0.3305025197",
                "lunar": "128.5654801633",
                "kilometers": "49442472.976753039",
                "miles": "30722128.1037443782"
            },
            "orbiting_body": "Earth"
        },
        {
            "close_approach_date": "2014-05-05",
            "close_approach_date_full": "2014-May-05 10:20",
            "epoch_date_close_approach": 1399285200000,
            "relative_velocity": {
                "kilometers_per_second": "6.4105449822",
                "kilometers_per_hour": "23077.9619358821",
                "miles_per_hour": "14339.7480706596"
            },
            "miss_distance": {
                "astronomical": "0.0051759222",
                "lunar": "2.0134337358",
                "kilometers": "774306.936405714",
                "miles": "481132.0198942932"
            },
            "orbiting_body": "Earth"
        },
        {
            "close_approach_date": "2014-05-05",
            "close_approach_date_full": "2014-May-05 11:53",
            "epoch_date_close_approach": 1399290780000,
            "relative_velocity": {
                "kilometers_per_second": "7.3398263926",
                "kilometers_per_hour": "26423.3750132758",
                "miles_per_hour": "16418.4576575546"
            },
            "miss_distance": {
                "astronomical": "0.0076230238",
                "lunar": "2.9653562582",
                "kilometers": "1140388.123439306",
                "miles": "708604.3214861828"
            },
            "orbiting_body": "Moon"
        },
        {
            "close_approach_date": "2015-10-29",
            "close_approach_date_full": "2015-Oct-29 06:52",
            "epoch_date_close_approach": 1446101520000,
            "relative_velocity": {
                "kilometers_per_second": "13.7634157714",
                "kilometers_per_hour": "49548.2967770764",
                "miles_per_hour": "30787.3847390673"
            },
            "miss_distance": {
                "astronomical": "0.2564224963",
                "lunar": "99.7483510607",
                "kilometers": "38360259.266562881",
                "miles": "23835959.8200985178"
            },
            "orbiting_body": "Earth"
        }
    ],
    "orbital_data": {
        "orbit_id": "3",
        "orbit_determination_date": "2017-04-06 08:40:46",
        "first_observation_date": "2014-04-28",
        "last_observation_date": "2014-04-29",
        "data_arc_in_days": 1,
        "observations_used": 18,
        "orbit_uncertainty": "8",
        "minimum_orbit_intersection": ".00173315",
        "jupiter_tisserand_invariant": "5.645",
        "epoch_osculation": "2456776.5",
        "eccentricity": ".1982094516224854",
        "semi_major_axis": "1.09643628890007",
        "inclination": "2.497500164417492",
        "ascending_node_longitude": "227.2382897063851",
        "orbital_period": "419.3469883667229",
        "perihelion_distance": ".8791122533381945",
        "perihelion_argument": "74.80958663118068",
        "aphelion_distance": "1.313760324461946",
        "perihelion_time": "2456847.953015848038",
        "mean_anomaly": "298.6591857843543",
        "mean_motion": ".8584776092040909",
        "equinox": "J2000",
        "orbit_class": {
            "orbit_class_type": "APO",
            "orbit_class_description": "Near-Earth asteroid orbits which cross the Earth’s orbit similar to that of 1862 Apollo",
            "orbit_class_range": "a (semi-major axis) > 1.0 AU; q (perihelion) < 1.017 AU"
        }
    },
    "is_sentry_object": false
}